NORAD_CAT_ID,OBJECT_NAME,OBJECT_TYPE,EPOCH,MEAN_MOTION,ECCENTRICITY,INCLINATION,RA_OF_ASC_NODE,ARG_OF_PERICENTER,MEAN_ANOMALY,BSTAR,MEAN_MOTION_DOT,MEAN_MOTION_DDOT,TLE_LINE0,TLE_LINE1,TLE_LINE2,SEMIMAJOR_AXIS,PERIOD,APOGEE,PERIGEE,DECAYED
44767,STARLINK-1062,PAYLOAD,2022-10-08 16:21:49,15.06392318,0.0001149999999999,53.056,69.1419,72.2212,287.8902,3.6344e-05,2.6e-06,0.0,0 STARLINK-1062,1 44767U 19074BG  22281.68181726  .00000260  00000-0  36344-4 0  9995,2 44767  53.0560  69.1419 0001150  72.2212 287.8902 15.06392318160261,6925.371999999999,95.593,548.034,546.441,0.0
44767,STARLINK-1062,PAYLOAD,2022-10-09 13:03:49,15.06402953,0.0001298,53.0557,65.27,70.7578,289.3552,5.142600000000001e-05,4.85e-06,0.0,0 STARLINK-1062,1 44767U 19074BG  22282.54432041  .00000485  00000-0  51426-4 0  9997,2 44767  53.0557  65.2700 0001298  70.7578 289.3552 15.06402953160229,6925.34,95.592,548.1030000000002,546.306,0.0
44767,STARLINK-1062,PAYLOAD,2022-10-09 16:14:53,15.06405205,0.0001319,53.0556,64.6732,72.866,287.2473,7.200199999999999e-05,7.91e-06,0.0,0 STARLINK-1062,1 44767U 19074BG  22282.67701102  .00000791  00000-0  72002-4 0  9991,2 44767  53.0556  64.6732 0001319  72.8660 287.2473 15.06405205160249,6925.333000000001,95.592,548.111,546.284,0.0
44767,STARLINK-1062,PAYLOAD,2022-10-10 11:21:22,15.06402255,0.0001348,53.0556,61.0981,74.6634,285.4503,0.00011161,1.381e-05,0.0,0 STARLINK-1062,1 44767U 19074BG  22283.47317357  .00001381  00000-0  11161-3 0  9999,2 44767  53.0556  61.0981 0001348  74.6634 285.4503 15.06402255160368,6925.342,95.592,548.14,546.273,0.0
44767,STARLINK-1062,PAYLOAD,2022-10-11 01:41:14,15.06392229,0.0001399,53.056,58.4177,74.1125,286.0018,4.0749e-05,3.25e-06,0.0,0 STARLINK-1062,1 44767U 19074BG  22284.07030366  .00000325  00000-0  40749-4 0  9990,2 44767  53.0560  58.4177 0001399  74.1125 286.0018 15.06392229160622,6925.371999999999,95.593,548.206,546.269,0.0
44767,STARLINK-1062,PAYLOAD,2022-10-11 11:14:29,15.06385456,0.0001395999999999,53.0558,56.6314,67.5723,292.5414,-6.8517e-05,-1.301e-05,0.0,0 STARLINK-1062,1 44767U 19074BG  22284.46839303 -.00001301  00000-0 -68517-4 0  9991,2 44767  53.0558  56.6314 0001396  67.5723 292.5414 15.06385456160681,6925.393,95.593,548.225,546.2909999999998,0.0
44767,STARLINK-1062,PAYLOAD,2022-10-12 11:07:34,15.06390125,0.0001574,53.0558,52.1646,61.2338,298.8809,-5.6416e-05,-1.121e-05,0.0,0 STARLINK-1062,1 44767U 19074BG  22285.46359891 -.00001121  00000-0 -56416-4 0  9996,2 44767  53.0558  52.1646 0001574  61.2338 298.8809 15.06390125160665,6925.379,95.593,548.3340000000002,546.154,0.0
44767,STARLINK-1062,PAYLOAD,2022-10-12 17:29:43,15.06397363,0.0001569,53.0554,50.973,65.4806,294.6346,8.999e-05,1.059e-05,0.0,0 STARLINK-1062,1 44767U 19074BG  22285.72897822  .00001059  00000-0  89990-4 0  9997,2 44767  53.0554  50.9730 0001569  65.4806 294.6346 15.06397363160707,6925.357,95.592,548.308,546.135,0.0
44767,STARLINK-1062,PAYLOAD,2022-10-13 11:00:39,15.06395654,0.0001607,53.0557,47.6972,59.5943,300.5205,0.0001645,2.169e-05,0.0,0 STARLINK-1062,1 44767U 19074BG  22286.45879379  .00002169  00000-0  16450-3 0  9998,2 44767  53.0557  47.6972 0001607  59.5943 300.5205 15.06395654160814,6925.361999999999,95.592,548.34,546.114,0.0
44767,STARLINK-1062,PAYLOAD,2022-10-14 02:56:03,15.06402749,0.0001656,53.0555,44.7193,59.8745,300.2408,3.4393e-05,2.31e-06,0.0,0 STARLINK-1062,1 44767U 19074BG  22287.12226473  .00000231  00000-0  34393-4 0  9999,2 44767  53.0555  44.7193 0001656  59.8745 300.2408 15.06402749161088,6925.34,95.592,548.352,546.058,0.0
44767,STARLINK-1062,PAYLOAD,2022-10-14 14:04:50,15.06403092,0.0001544,53.0554,42.6329,65.7989,294.3162,3.8925e-05,2.98e-06,0.0,0 STARLINK-1062,1 44767U 19074BG  22287.58669045  .00000298  00000-0  38925-4 0  9993,2 44767  53.0554  42.6329 0001544  65.7989 294.3162 15.06403092160987,6925.339,95.592,548.273,546.135,0.0
44767,STARLINK-1062,PAYLOAD,2022-10-15 10:46:50,15.06399638,0.0001551,53.0558,38.7612,68.1863,291.9291,2.9391e-05,1.56e-06,0.0,0 STARLINK-1062,1 44767U 19074BG  22288.44919742  .00000156  00000-0  29391-4 0  9991,2 44767  53.0558  38.7612 0001551  68.1863 291.9291 15.06399638161288,6925.35,95.592,548.289,546.141,0.0
44767,STARLINK-1062,PAYLOAD,2022-10-15 12:22:22,15.0640077,0.0001545,53.0558,38.4634,67.9016,292.2137,3.9074e-05,3.01e-06,0.0,0 STARLINK-1062,1 44767U 19074BG  22288.51554309  .00000301  00000-0  39074-4 0  9994,2 44767  53.0558  38.4634 0001545  67.9016 292.2137 15.06400770161125,6925.346,95.592,548.281,546.141,0.0
44767,STARLINK-1062,PAYLOAD,2022-10-15 17:09:00,15.06398839,0.0001674,53.0563,37.5718,54.4026,305.7118,-1.0019e-05,-4.31e-06,0.0,0 STARLINK-1062,1 44767U 19074BG  22288.71458624 -.00000431  00000-0 -10019-4 0  9993,2 44767  53.0563  37.5718 0001674  54.4026 305.7118 15.06398839161153,6925.352,95.592,548.376,546.058,0.0
44767,STARLINK-1062,PAYLOAD,2022-10-16 12:15:28,15.06395971,0.0001274,53.0566,33.9947,66.16,293.9522,2.427900000000001e-05,8e-07,0.0,0 STARLINK-1062,1 44767U 19074BG  22289.51074829  .00000080  00000-0  24279-4 0  9994,2 44767  53.0566  33.9947 0001274  66.1600 293.9522 15.06395971161278,6925.361,95.592,548.1080000000002,546.344,0.0
44767,STARLINK-1062,PAYLOAD,2022-10-16 17:02:06,15.0639402,0.0001696999999999,53.0565,33.1038,53.6154,306.4992,-6.2733e-05,-1.216e-05,0.0,0 STARLINK-1062,1 44767U 19074BG  22289.70979392 -.00001216  00000-0 -62733-4 0  9995,2 44767  53.0565  33.1038 0001697  53.6154 306.4992 15.06394020161303,6925.3669999999975,95.593,548.4069999999998,546.057,0.0
44767,STARLINK-1062,PAYLOAD,2022-10-17 02:35:21,15.06384875,0.000162,53.0567,31.3166,54.3446,305.7693,-7.3083e-05,-1.369e-05,0.0,0 STARLINK-1062,1 44767U 19074BG  22290.10788206 -.00001369  00000-0 -73083-4 0  9992,2 44767  53.0567  31.3166 0001620  54.3446 305.7693 15.06384875161537,6925.395,95.593,548.382,546.138,0.0
44767,STARLINK-1062,PAYLOAD,2022-10-17 12:08:34,15.06393945,0.0001498,53.0564,29.5283,64.5116,295.6028,1.3542e-05,-8e-07,0.0,0 STARLINK-1062,1 44767U 19074BG  22290.50595609 -.00000080  00000-0  13542-4 0  9991,2 44767  53.0564  29.5283 0001498  64.5116 295.6028 15.06393945161596,6925.3669999999975,95.593,548.27,546.195,0.0
44767,STARLINK-1062,PAYLOAD,2022-10-18 08:50:36,15.06385646,0.0001506,53.0568,25.6567,59.9141,300.1998,-7.5818e-05,-1.41e-05,0.0,0 STARLINK-1062,1 44767U 19074BG  22291.36847441 -.00001410  00000-0 -75818-4 0  9993,2 44767  53.0568  25.6567 0001506  59.9141 300.1998 15.06385646161551,6925.393,95.593,548.3009999999998,546.215,0.0
44767,STARLINK-1062,PAYLOAD,2022-10-18 13:37:13,15.06387037,0.0001574,53.0568,24.7631,53.9481,306.1653,-5.8383e-05,-1.151e-05,0.0,0 STARLINK-1062,1 44767U 19074BG  22291.56751503 -.00001151  00000-0 -58383-4 0  9998,2 44767  53.0568  24.7631 0001574  53.9481 306.1653 15.06387037161751,6925.388000000001,95.593,548.3430000000002,546.163,0.0
44767,STARLINK-1062,PAYLOAD,2022-10-19 11:54:45,15.06397457,0.0001631,53.0566,20.5942,51.7135,308.4001,9.1625e-05,1.083e-05,0.0,0 STARLINK-1062,1 44767U 19074BG  22292.49636565  .00001083  00000-0  91625-4 0  9999,2 44767  53.0566  20.5942 0001631  51.7135 308.4001 15.06397457161898,6925.356,95.592,548.351,546.092,0.0
44767,STARLINK-1062,PAYLOAD,2022-10-20 11:47:50,15.06411558,0.0001641,53.0565,16.1272,50.8145,309.2989,-3.9177e-05,-8.65e-06,0.0,0 STARLINK-1062,1 44767U 19074BG  22293.49156233 -.00000865  00000-0 -39177-4 0  9992,2 44767  53.0565  16.1272 0001641  50.8145 309.2989 15.06411558161877,6925.313,95.591,548.315,546.0419999999998,0.0
44767,STARLINK-1062,PAYLOAD,2022-10-20 22:56:38,15.06393448,0.0001673,53.0564,14.0428,49.0752,311.0382,5.6534e-05,5.6e-06,0.0,0 STARLINK-1062,1 44767U 19074BG  22293.95600011  .00000560  00000-0  56534-4 0  9997,2 44767  53.0564  14.0428 0001673  49.0752 311.0382 15.06393448162118,6925.369000000002,95.593,548.3919999999998,546.075,0.0
44767,STARLINK-1062,PAYLOAD,2022-10-21 10:05:24,15.06404569,0.000171,53.0565,11.9582,46.7027,313.4104,6.8651e-05,7.41e-06,0.0,0 STARLINK-1062,1 44767U 19074BG  22294.42041978  .00000741  00000-0  68651-4 0  9995,2 44767  53.0565  11.9582 0001710  46.7027 313.4104 15.06404569162189,6925.335,95.592,548.384,546.015,0.0
44767,STARLINK-1062,PAYLOAD,2022-10-21 22:49:43,15.06399677,0.0002053,53.0558,9.5779,37.5668,322.5464,1.1637e-05,-1.08e-06,0.0,0 STARLINK-1062,1 44767U 19074BG  22294.95119847 -.00000108  00000-0  11637-4 0  9994,2 44767  53.0558   9.5779 0002053  37.5668 322.5464 15.06399677162264,6925.35,95.592,548.636,545.793,0.0
44767,STARLINK-1062,PAYLOAD,2022-10-22 11:34:02,15.06395272,0.0001761999999999,53.0565,7.1925,43.2593,316.8534,-4.9548e-05,-1.019e-05,0.0,0 STARLINK-1062,1 44767U 19074BG  22295.48197752 -.00001019  00000-0 -49548-4 0  9999,2 44767  53.0565   7.1925 0001762  43.2593 316.8534 15.06395272162177,6925.363,95.592,548.448,546.008,0.0
44767,STARLINK-1062,PAYLOAD,2022-10-23 11:27:07,15.06409375,0.0001551999999999,53.057,2.7222,56.2026,303.9111,-2.3511e-05,-6.32e-06,0.0,0 STARLINK-1062,1 44767U 19074BG  22296.47716678 -.00000632  00000-0 -23511-4 0  9995,2 44767  53.0570   2.7222 0001552  56.2026 303.9111 15.06409375162499,6925.32,95.592,548.26,546.11,0.0
44767,STARLINK-1062,PAYLOAD,2022-10-23 14:38:11,15.06414122,0.0001686,53.0568,2.1278,55.5678,304.547,-0.00012761,-2.183e-05,0.0,0 STARLINK-1062,1 44767U 19074BG  22296.60985994 -.00002183  00000-0 -12761-3 0  9996,2 44767  53.0568   2.1278 0001686  55.5678 304.5470 15.06414122162349,6925.305,95.591,548.3380000000002,546.003,0.0
44767,STARLINK-1062,PAYLOAD,2022-10-24 09:44:40,15.06393094,0.0001657,53.0569,358.5543,41.6605,318.451,3.3568e-05,2.18e-06,0.0,0 STARLINK-1062,1 44767U 19074BG  22297.40602684  .00000218  00000-0  33568-4 0  9991,2 44767  53.0569 358.5543 0001657  41.6605 318.4510 15.06393094162463,6925.37,95.593,548.382,546.087,0.0
